[{"OBJECT_NAME":"STARLINK-5724","OBJECT_ID":"2023-061BF","EPOCH":"2026-03-09T07:42:09.860544","MEAN_MOTION":15.02532142,"ECCENTRICITY":0.00014253,"INCLINATION":43.0032,"RA_OF_ASC_NODE":173.9255,"ARG_OF_PERICENTER":258.3214,"MEAN_ANOMALY":101.7468,"EPHEMERIS_TYPE":0,"CLASSIFICATION_TYPE":"U","NORAD_CAT_ID":56427,"ELEMENT_SET_NO":999,"REV_AT_EPOCH":15699,"BSTAR":-3.2782954e-5,"MEAN_MOTION_DOT":-6.46e-6,"MEAN_MOTION_DDOT":0},{"OBJECT_NAME":"CZ-4C DEB","OBJECT_ID":"2010-038E","EPOCH":"2026-03-08T13:52:01.201152","MEAN_MOTION":14.99820212,"ECCENTRICITY":0.00772359,"INCLINATION":97.9453,"RA_OF_ASC_NODE":199.3713,"ARG_OF_PERICENTER":309.8702,"MEAN_ANOMALY":49.5744,"EPHEMERIS_TYPE":0,"CLASSIFICATION_TYPE":"U","NORAD_CAT_ID":37569,"ELEMENT_SET_NO":999,"REV_AT_EPOCH":82446,"BSTAR":0.0019249603,"MEAN_MOTION_DOT":0.00025376,"MEAN_MOTION_DDOT":0}]
